[{"OBJECT_NAME":"NEXSAT-1","OBJECT_ID":"2024-024E","EPOCH":"2026-03-09T22:47:24.778176","MEAN_MOTION":15.32166372,"ECCENTRICITY":0.00099795,"INCLINATION":97.3124,"RA_OF_ASC_NODE":144.1918,"ARG_OF_PERICENTER":108.5709,"MEAN_ANOMALY":251.6617,"EPHEMERIS_TYPE":0,"CLASSIFICATION_TYPE":"U","NORAD_CAT_ID":58921,"ELEMENT_SET_NO":999,"REV_AT_EPOCH":11669,"BSTAR":0.00031433612,"MEAN_MOTION_DOT":9.702e-5,"MEAN_MOTION_DDOT":0},{"OBJECT_NAME":"STARLINK-34550","OBJECT_ID":"2025-139V","EPOCH":"2026-03-09T10:12:33.794496","MEAN_MOTION":15.30193759,"ECCENTRICITY":0.00012808,"INCLINATION":53.1594,"RA_OF_ASC_NODE":128.2629,"ARG_OF_PERICENTER":81.15,"MEAN_ANOMALY":278.9645,"EPHEMERIS_TYPE":0,"CLASSIFICATION_TYPE":"U","NORAD_CAT_ID":64683,"ELEMENT_SET_NO":999,"REV_AT_EPOCH":4024,"BSTAR":0.00049018187,"MEAN_MOTION_DOT":0.00014184,"MEAN_MOTION_DDOT":0}]
